ONEWEB-0255             
1 48973U 21060G   25363.26697859  .00000039  00000+0  69191-4 0  9992
2 48973  87.9039 262.6171 0001525  66.6434 293.4857 13.16593347217309
ONEWEB-0256             
1 48974U 21060H   25363.29309256 -.00000003  00000+0 -42413-4 0  9998
2 48974  87.9034 262.6195 0001666  76.8312 283.3005 13.16596221217278
ONEWEB-0257             
1 48975U 21060J   25363.24955266  .00000096  00000+0  21791-3 0  9997
2 48975  87.9046 262.6080 0001644  69.7443 290.3864 13.16592755217221
ONEWEB-0258             
1 48976U 21060K   25363.17514037  .00000151  00000+0  36229-3 0  9991
2 48976  87.9037 262.6372 0001481  74.8640 285.2655 13.16592961217221
ONEWEB-0259             
1 48977U 21060L   25363.16880577  .00000139  00000+0  32970-3 0  9991
2 48977  87.9045 262.6338 0001525  68.7252 291.4042 13.16592936217257
ONEWEB-0260             
1 48978U 21060M   25363.16010329  .00000069  00000+0  14577-3 0  9997
2 48978  87.9032 262.6474 0001990  77.6106 282.5247 13.16595872217236
ONEWEB-0261             
1 48979U 21060N   25362.97802963 -.00000008  00000+0 -54229-4 0  9993
2 48979  87.9037 262.6853 0001770  61.6573 298.4737 13.16595189217264
ONEWEB-0262             
1 48980U 21060P   25363.26221787  .00000083  00000+0  18307-3 0  9994
2 48980  87.9045 262.6039 0001331  68.0597 292.0675 13.16593047217263
ONEWEB-0263             
1 48981U 21060Q   25363.21788977 -.00000036  00000+0 -12846-3 0  9991
2 48981  87.9040 262.6264 0001663  60.8169 299.3128 13.16593409217223
ONEWEB-0264             
1 48982U 21060R   25363.17910505  .00000143  00000+0  33939-3 0  9994
2 48982  87.9037 262.6373 0001803  70.5936 289.5390 13.16594463217220
ONEWEB-0266             
1 48984U 21060T   25363.27646736  .00000029  00000+0  41948-4 0  9992
2 48984  87.9045 262.6052 0001422  75.5090 284.6198 13.16592997217220
ONEWEB-0267             
1 48985U 21060U   25363.21156123 -.00000056  00000+0 -18045-3 0  9996
2 48985  87.9043 262.6166 0001711  67.3614 292.7698 13.16593585217226
ONEWEB-0268             
1 48986U 21060V   25363.17988624  .00000068  00000+0  14512-3 0  9997
2 48986  87.9044 262.6318 0001662  74.4012 285.7302 13.16593227217488
ONEWEB-0269             
1 48987U 21060W   25363.16089866  .00000063  00000+0  13177-3 0  9998
2 48987  87.9032 262.6561 0001714  80.7279 279.4045 13.16593794217257
ONEWEB-0270             
1 48988U 21060X   25363.17831549  .00000123  00000+0  28758-3 0  9991
2 48988  87.9044 262.6340 0001477  58.1562 301.9712 13.16593538217298
ONEWEB-0271             
1 48989U 21060Y   25363.16565015  .00000125  00000+0  29245-3 0  9997
2 48989  87.9044 262.6260 0001658  66.3040 293.8265 13.16593178217295
ONEWEB-0272             
1 48990U 21060Z   25363.26380145  .00000034  00000+0  56298-4 0  9997
2 48990  87.9038 262.6205 0001815  70.9659 289.1668 13.16592796217257
