[{"OBJECT_NAME":"ONEWEB-0255","OBJECT_ID":"2021-060G","EPOCH":"2025-12-29T06:24:26.950176","MEAN_MOTION":13.16593347,"ECCENTRICITY":0.0001525,"INCLINATION":87.9039,"RA_OF_ASC_NODE":262.6171,"ARG_OF_PERICENTER":66.6434,"MEAN_ANOMALY":293.4857,"EPHEMERIS_TYPE":0,"CLASSIFICATION_TYPE":"U","NORAD_CAT_ID":48973,"ELEMENT_SET_NO":999,"REV_AT_EPOCH":21730,"BSTAR":6.9191e-5,"MEAN_MOTION_DOT":3.9e-7,"MEAN_MOTION_DDOT":0},{"OBJECT_NAME":"ONEWEB-0256","OBJECT_ID":"2021-060H","EPOCH":"2025-12-29T07:02:03.197184","MEAN_MOTION":13.16596221,"ECCENTRICITY":0.0001666,"INCLINATION":87.9034,"RA_OF_ASC_NODE":262.6195,"ARG_OF_PERICENTER":76.8312,"MEAN_ANOMALY":283.3005,"EPHEMERIS_TYPE":0,"CLASSIFICATION_TYPE":"U","NORAD_CAT_ID":48974,"ELEMENT_SET_NO":999,"REV_AT_EPOCH":21727,"BSTAR":-4.2413e-5,"MEAN_MOTION_DOT":-3.0e-8,"MEAN_MOTION_DDOT":0},{"OBJECT_NAME":"ONEWEB-0257","OBJECT_ID":"2021-060J","EPOCH":"2025-12-29T05:59:21.349824","MEAN_MOTION":13.16592755,"ECCENTRICITY":0.0001644,"INCLINATION":87.9046,"RA_OF_ASC_NODE":262.608,"ARG_OF_PERICENTER":69.7443,"MEAN_ANOMALY":290.3864,"EPHEMERIS_TYPE":0,"CLASSIFICATION_TYPE":"U","NORAD_CAT_ID":48975,"ELEMENT_SET_NO":999,"REV_AT_EPOCH":21722,"BSTAR":0.00021791,"MEAN_MOTION_DOT":9.6e-7,"MEAN_MOTION_DDOT":0},{"OBJECT_NAME":"ONEWEB-0258","OBJECT_ID":"2021-060K","EPOCH":"2025-12-29T04:12:12.127968","MEAN_MOTION":13.16592961,"ECCENTRICITY":0.00014817,"INCLINATION":87.9037,"RA_OF_ASC_NODE":262.6372,"ARG_OF_PERICENTER":74.864,"MEAN_ANOMALY":285.2655,"EPHEMERIS_TYPE":0,"CLASSIFICATION_TYPE":"U","NORAD_CAT_ID":48976,"ELEMENT_SET_NO":999,"REV_AT_EPOCH":21722,"BSTAR":0.00036228789,"MEAN_MOTION_DOT":1.51e-6,"MEAN_MOTION_DDOT":0},{"OBJECT_NAME":"ONEWEB-0259","OBJECT_ID":"2021-060L","EPOCH":"2025-12-29T04:03:04.818528","MEAN_MOTION":13.16592936,"ECCENTRICITY":0.00015254,"INCLINATION":87.9045,"RA_OF_ASC_NODE":262.6338,"ARG_OF_PERICENTER":68.7252,"MEAN_ANOMALY":291.4042,"EPHEMERIS_TYPE":0,"CLASSIFICATION_TYPE":"U","NORAD_CAT_ID":48977,"ELEMENT_SET_NO":999,"REV_AT_EPOCH":21725,"BSTAR":0.00032969907,"MEAN_MOTION_DOT":1.39e-6,"MEAN_MOTION_DDOT":0},{"OBJECT_NAME":"ONEWEB-0260","OBJECT_ID":"2021-060M","EPOCH":"2025-12-29T03:50:32.924256","MEAN_MOTION":13.16595872,"ECCENTRICITY":0.000199,"INCLINATION":87.9032,"RA_OF_ASC_NODE":262.6474,"ARG_OF_PERICENTER":77.6106,"MEAN_ANOMALY":282.5247,"EPHEMERIS_TYPE":0,"CLASSIFICATION_TYPE":"U","NORAD_CAT_ID":48978,"ELEMENT_SET_NO":999,"REV_AT_EPOCH":21723,"BSTAR":0.00014576725,"MEAN_MOTION_DOT":6.9e-7,"MEAN_MOTION_DDOT":0},{"OBJECT_NAME":"ONEWEB-0261","OBJECT_ID":"2021-060N","EPOCH":"2025-12-28T23:28:21.760032","MEAN_MOTION":13.16595189,"ECCENTRICITY":0.00017706,"INCLINATION":87.9037,"RA_OF_ASC_NODE":262.6853,"ARG_OF_PERICENTER":61.6573,"MEAN_ANOMALY":298.4737,"EPHEMERIS_TYPE":0,"CLASSIFICATION_TYPE":"U","NORAD_CAT_ID":48979,"ELEMENT_SET_NO":999,"REV_AT_EPOCH":21726,"BSTAR":-5.4228545e-5,"MEAN_MOTION_DOT":-8.0e-8,"MEAN_MOTION_DDOT":0},{"OBJECT_NAME":"ONEWEB-0262","OBJECT_ID":"2021-060P","EPOCH":"2025-12-29T06:17:35.623968","MEAN_MOTION":13.16593047,"ECCENTRICITY":0.0001331,"INCLINATION":87.9045,"RA_OF_ASC_NODE":262.6039,"ARG_OF_PERICENTER":68.0597,"MEAN_ANOMALY":292.0675,"EPHEMERIS_TYPE":0,"CLASSIFICATION_TYPE":"U","NORAD_CAT_ID":48980,"ELEMENT_SET_NO":999,"REV_AT_EPOCH":21726,"BSTAR":0.00018307,"MEAN_MOTION_DOT":8.3e-7,"MEAN_MOTION_DDOT":0},{"OBJECT_NAME":"ONEWEB-0263","OBJECT_ID":"2021-060Q","EPOCH":"2025-12-29T05:13:45.676128","MEAN_MOTION":13.16593409,"ECCENTRICITY":0.0001663,"INCLINATION":87.904,"RA_OF_ASC_NODE":262.6264,"ARG_OF_PERICENTER":60.8169,"MEAN_ANOMALY":299.3128,"EPHEMERIS_TYPE":0,"CLASSIFICATION_TYPE":"U","NORAD_CAT_ID":48981,"ELEMENT_SET_NO":999,"REV_AT_EPOCH":21722,"BSTAR":-0.00012846,"MEAN_MOTION_DOT":-3.6e-7,"MEAN_MOTION_DDOT":0},{"OBJECT_NAME":"ONEWEB-0264","OBJECT_ID":"2021-060R","EPOCH":"2025-12-29T04:17:54.676320","MEAN_MOTION":13.16594463,"ECCENTRICITY":0.00018033,"INCLINATION":87.9037,"RA_OF_ASC_NODE":262.6373,"ARG_OF_PERICENTER":70.5936,"MEAN_ANOMALY":289.539,"EPHEMERIS_TYPE":0,"CLASSIFICATION_TYPE":"U","NORAD_CAT_ID":48982,"ELEMENT_SET_NO":999,"REV_AT_EPOCH":21722,"BSTAR":0.00033938594,"MEAN_MOTION_DOT":1.43e-6,"MEAN_MOTION_DDOT":0},{"OBJECT_NAME":"ONEWEB-0266","OBJECT_ID":"2021-060T","EPOCH":"2025-12-29T06:38:06.779904","MEAN_MOTION":13.16592997,"ECCENTRICITY":0.0001422,"INCLINATION":87.9045,"RA_OF_ASC_NODE":262.6052,"ARG_OF_PERICENTER":75.509,"MEAN_ANOMALY":284.6198,"EPHEMERIS_TYPE":0,"CLASSIFICATION_TYPE":"U","NORAD_CAT_ID":48984,"ELEMENT_SET_NO":999,"REV_AT_EPOCH":21722,"BSTAR":4.1948e-5,"MEAN_MOTION_DOT":2.9e-7,"MEAN_MOTION_DDOT":0},{"OBJECT_NAME":"ONEWEB-0267","OBJECT_ID":"2021-060U","EPOCH":"2025-12-29T05:04:38.890272","MEAN_MOTION":13.16593585,"ECCENTRICITY":0.0001711,"INCLINATION":87.9043,"RA_OF_ASC_NODE":262.6166,"ARG_OF_PERICENTER":67.3614,"MEAN_ANOMALY":292.7698,"EPHEMERIS_TYPE":0,"CLASSIFICATION_TYPE":"U","NORAD_CAT_ID":48985,"ELEMENT_SET_NO":999,"REV_AT_EPOCH":21722,"BSTAR":-0.00018045,"MEAN_MOTION_DOT":-5.6e-7,"MEAN_MOTION_DDOT":0},{"OBJECT_NAME":"ONEWEB-0268","OBJECT_ID":"2021-060V","EPOCH":"2025-12-29T04:19:02.171136","MEAN_MOTION":13.16593227,"ECCENTRICITY":0.00016626,"INCLINATION":87.9044,"RA_OF_ASC_NODE":262.6318,"ARG_OF_PERICENTER":74.4012,"MEAN_ANOMALY":285.7302,"EPHEMERIS_TYPE":0,"CLASSIFICATION_TYPE":"U","NORAD_CAT_ID":48986,"ELEMENT_SET_NO":999,"REV_AT_EPOCH":21748,"BSTAR":0.00014512142,"MEAN_MOTION_DOT":6.8e-7,"MEAN_MOTION_DDOT":0},{"OBJECT_NAME":"ONEWEB-0269","OBJECT_ID":"2021-060W","EPOCH":"2025-12-29T03:51:41.644224","MEAN_MOTION":13.16593794,"ECCENTRICITY":0.00017146,"INCLINATION":87.9032,"RA_OF_ASC_NODE":262.6561,"ARG_OF_PERICENTER":80.7279,"MEAN_ANOMALY":279.4045,"EPHEMERIS_TYPE":0,"CLASSIFICATION_TYPE":"U","NORAD_CAT_ID":48987,"ELEMENT_SET_NO":999,"REV_AT_EPOCH":21725,"BSTAR":0.00013177056,"MEAN_MOTION_DOT":6.3e-7,"MEAN_MOTION_DDOT":0},{"OBJECT_NAME":"ONEWEB-0270","OBJECT_ID":"2021-060X","EPOCH":"2025-12-29T04:16:46.458336","MEAN_MOTION":13.16593538,"ECCENTRICITY":0.00014776,"INCLINATION":87.9044,"RA_OF_ASC_NODE":262.634,"ARG_OF_PERICENTER":58.1562,"MEAN_ANOMALY":301.9712,"EPHEMERIS_TYPE":0,"CLASSIFICATION_TYPE":"U","NORAD_CAT_ID":48988,"ELEMENT_SET_NO":999,"REV_AT_EPOCH":21729,"BSTAR":0.00028757916,"MEAN_MOTION_DOT":1.23e-6,"MEAN_MOTION_DDOT":0},{"OBJECT_NAME":"ONEWEB-0271","OBJECT_ID":"2021-060Y","EPOCH":"2025-12-29T03:58:32.172960","MEAN_MOTION":13.16593178,"ECCENTRICITY":0.00016587,"INCLINATION":87.9044,"RA_OF_ASC_NODE":262.626,"ARG_OF_PERICENTER":66.304,"MEAN_ANOMALY":293.8265,"EPHEMERIS_TYPE":0,"CLASSIFICATION_TYPE":"U","NORAD_CAT_ID":48989,"ELEMENT_SET_NO":999,"REV_AT_EPOCH":21729,"BSTAR":0.00029245232,"MEAN_MOTION_DOT":1.25e-6,"MEAN_MOTION_DDOT":0},{"OBJECT_NAME":"ONEWEB-0272","OBJECT_ID":"2021-060Z","EPOCH":"2025-12-29T06:19:52.445280","MEAN_MOTION":13.16592796,"ECCENTRICITY":0.0001815,"INCLINATION":87.9038,"RA_OF_ASC_NODE":262.6205,"ARG_OF_PERICENTER":70.9659,"MEAN_ANOMALY":289.1668,"EPHEMERIS_TYPE":0,"CLASSIFICATION_TYPE":"U","NORAD_CAT_ID":48990,"ELEMENT_SET_NO":999,"REV_AT_EPOCH":21725,"BSTAR":5.6298e-5,"MEAN_MOTION_DOT":3.4e-7,"MEAN_MOTION_DDOT":0}]
